{"fetched_at":"2026-07-10T18:08:01.169Z","source":"https://celestrak.org/NORAD/elements/gp.php?NAME=ASTROCAST&FORMAT=JSON","constellation":"astrocast","records":[{"OBJECT_NAME":"ASTROCAST 0.1","OBJECT_ID":"2018-099AS","EPOCH":"2026-07-08T18:07:43.087584","CLASSIFICATION_TYPE":"U","MEAN_MOTION":15.51109059,"ECCENTRICITY":0.00056344,"INCLINATION":97.4369,"RA_OF_ASC_NODE":268.9463,"ARG_OF_PERICENTER":145.5224,"MEAN_ANOMALY":214.6394,"EPHEMERIS_TYPE":0,"NORAD_CAT_ID":43798,"ELEMENT_SET_NO":999,"REV_AT_EPOCH":41777,"BSTAR":0.00053622922,"MEAN_MOTION_DOT":0.0003125,"MEAN_MOTION_DDOT":0},{"OBJECT_NAME":"ASTROCAST-0402","OBJECT_ID":"2023-001DE","EPOCH":"2026-07-09T11:51:31.960224","CLASSIFICATION_TYPE":"U","MEAN_MOTION":15.28934145,"ECCENTRICITY":0.00060776,"INCLINATION":97.5576,"RA_OF_ASC_NODE":284.0315,"ARG_OF_PERICENTER":149.8448,"MEAN_ANOMALY":210.3143,"EPHEMERIS_TYPE":0,"NORAD_CAT_ID":55109,"ELEMENT_SET_NO":999,"REV_AT_EPOCH":14794,"BSTAR":0.00024090056,"MEAN_MOTION_DOT":0.00006696,"MEAN_MOTION_DDOT":0},{"OBJECT_NAME":"ASTROCAST-0401","OBJECT_ID":"2023-001DF","EPOCH":"2026-07-08T17:20:00.772224","CLASSIFICATION_TYPE":"U","MEAN_MOTION":15.28412847,"ECCENTRICITY":0.00094537,"INCLINATION":97.5559,"RA_OF_ASC_NODE":283.0596,"ARG_OF_PERICENTER":127.1051,"MEAN_ANOMALY":233.1054,"EPHEMERIS_TYPE":0,"NORAD_CAT_ID":55110,"ELEMENT_SET_NO":999,"REV_AT_EPOCH":19449,"BSTAR":0.00035307559,"MEAN_MOTION_DOT":0.00009705,"MEAN_MOTION_DDOT":0},{"OBJECT_NAME":"ASTROCAST-0403","OBJECT_ID":"2023-001DG","EPOCH":"2026-07-10T06:09:59.370624","CLASSIFICATION_TYPE":"U","MEAN_MOTION":15.32213006,"ECCENTRICITY":0.00043229,"INCLINATION":97.5617,"RA_OF_ASC_NODE":285.9039,"ARG_OF_PERICENTER":230.5976,"MEAN_ANOMALY":129.4883,"EPHEMERIS_TYPE":0,"NORAD_CAT_ID":55111,"ELEMENT_SET_NO":999,"REV_AT_EPOCH":14809,"BSTAR":0.00054208288,"MEAN_MOTION_DOT":0.00016802,"MEAN_MOTION_DDOT":0},{"OBJECT_NAME":"ASTROCAST-0404","OBJECT_ID":"2023-001DH","EPOCH":"2026-07-09T04:47:46.190688","CLASSIFICATION_TYPE":"U","MEAN_MOTION":15.287651,"ECCENTRICITY":0.00048648,"INCLINATION":97.5664,"RA_OF_ASC_NODE":284.6603,"ARG_OF_PERICENTER":270.874,"MEAN_ANOMALY":89.1942,"EPHEMERIS_TYPE":0,"NORAD_CAT_ID":55112,"ELEMENT_SET_NO":999,"REV_AT_EPOCH":14789,"BSTAR":0.00022420685,"MEAN_MOTION_DOT":0.00006192,"MEAN_MOTION_DDOT":0}]}
