ASTROCAST 0.1           
1 43798U 18099AS  26189.75535981  .00031250  00000+0  53623-3 0  9999
2 43798  97.4369 268.9463 0005634 145.5224 214.6394 15.51109059417771
ASTROCAST-0402          
1 55109U 23001DE  26190.49411991  .00006696  00000+0  24090-3 0  9996
2 55109  97.5576 284.0315 0006077 149.8448 210.3143 15.28934145147943
ASTROCAST-0401          
1 55110U 23001DF  26189.72223116  .00009705  00000+0  35308-3 0  9990
2 55110  97.5559 283.0596 0009453 127.1051 233.1054 15.28412847194492
ASTROCAST-0403          
1 55111U 23001DG  26191.25693716  .00016802  00000+0  54208-3 0  9995
2 55111  97.5617 285.9039 0004322 230.5976 129.4883 15.32213006148099
ASTROCAST-0404          
1 55112U 23001DH  26190.19984017  .00006192  00000+0  22421-3 0  9998
2 55112  97.5664 284.6603 0004864 270.8740  89.1942 15.28765100147899
